OBJECT_NAME,OBJECT_ID,EPOCH,MEAN_MOTION,ECCENTRICITY,INCLINATION,RA_OF_ASC_NODE,ARG_OF_PERICENTER,MEAN_ANOMALY,EPHEMERIS_TYPE,CLASSIFICATION_TYPE,NORAD_CAT_ID,ELEMENT_SET_NO,REV_AT_EPOCH,BSTAR,MEAN_MOTION_DOT,MEAN_MOTION_DDOT
SWARM B,2013-067A,2026-07-15T20:55:59.290464,15.28719561,.00022827,87.7460,333.6028,83.2668,276.8841,0,U,39451,999,68762,.6865887E-4,.1952E-4,0
SWARM A,2013-067B,2026-07-15T22:14:56.076288,15.51467213,.00033325,87.3295,45.5541,93.4732,266.6911,0,U,39452,999,71070,.99824532E-4,.5933E-4,0
SWARM C,2013-067C,2026-07-15T22:14:48.044544,15.51466523,.00033245,87.3295,44.1350,93.7087,266.4555,0,U,39453,999,71066,.10013602E-3,.5951E-4,0
BRITE-CA1 (TORONTO),2014-033L,2026-07-15T20:18:13.453920,14.72723276,.00784836,97.9773,325.2513,184.1727,175.8836,0,U,40020,999,64643,.84679205E-4,.513E-5,0
OCO 2,2014-035A,2026-07-15T22:16:02.428032,14.57132529,.00014384,98.2020,137.7844,81.3244,278.8117,0,U,40059,999,64023,.46379693E-4,.164E-5,0
BRITE-PL2 (HEWELIUSZ),2014-049B,2026-07-15T19:48:49.342176,14.94687962,.00142775,97.9120,309.0513,20.1864,339.9917,0,U,40119,999,64572,.49290879E-4,.476E-5,0
MMS 1,2015-011A,2026-07-16T00:00:02.000160,0.28234980,.8308544,72.4906,348.4378,168.1233,357.5577,0,U,40482,999,136,0,-.1457E-4,0
MMS 2,2015-011B,2026-07-16T00:00:02.000160,0.28233917,.83113879,72.4946,348.4368,168.1264,357.5449,0,U,40483,999,136,0,-.1458E-4,0
MMS 3,2015-011C,2026-07-16T00:00:02.000160,0.28232898,.8309797,72.4943,348.4489,168.1344,357.5190,0,U,40484,999,133,0,-.1457E-4,0
MMS 4,2015-011D,2026-07-16T00:00:02.000160,0.28232641,.83097578,72.4899,348.4324,168.1443,357.5143,0,U,40485,999,139,0,-.1457E-4,0
ASTROSAT,2015-052A,2026-07-15T21:13:03.945216,14.82552874,.00073807,5.9976,308.7924,84.3850,275.7120,0,U,40930,999,58409,.53536605E-4,.111E-4,0
DAMPE,2015-078A,2026-07-15T23:52:47.184384,15.30855541,.00114898,97.4557,202.6050,342.7236,17.3612,0,U,41173,999,58895,.34498126E-4,.952E-5,0
PISAT,2016-059B,2026-07-15T22:57:17.028576,14.69030442,.00304595,97.8191,196.1749,112.4897,247.9539,0,U,41784,999,52396,.81603379E-4,.435E-5,0
HXMT (HUIYAN),2017-034A,2026-07-15T22:38:29.721120,15.18692514,.00322086,43.0155,22.8923,325.4462,34.4293,0,U,42758,999,50203,.11690112E-3,.2254E-4,0
FLYING LAPTOP,2017-042G,2026-07-15T23:31:00.594336,15.01316232,.00196688,97.4805,351.4297,30.0064,330.2284,0,U,42831,999,49077,.15819555E-3,.1986E-4,0
ZHANGHENG 1-01 (CSES-1),2018-015C,2026-07-15T22:57:34.699104,15.20613572,.00164526,97.6891,3.1903,162.3098,197.8713,0,U,43194,999,46901,.17121154E-3,.3693E-4,0
SALSAT,2020-068K,2026-07-15T22:07:44.579136,15.30178067,.0009261,97.8855,201.7454,190.1996,169.9057,0,U,46495,999,31975,.13963713E-3,.3996E-4,0
IXPE,2021-121A,2026-07-15T22:00:01.999584,15.10491600,.00071493,0.2295,99.7378,152.4066,209.4656,0,U,49954,999,552,.3038579E-3,.6076E-4,0
SMILE,2026-109A,2026-07-13T23:01:31.580256,0.47500629,.83137076,70.0512,206.6048,286.9544,0.1879,0,U,69123,999,6,0,.936E-5,0
