SWARM B                 
1 39451U 13067A   26196.87221401  .00001952  00000+0  68659-4 0  9992
2 39451  87.7460 333.6028 0002282  83.2668 276.8841 15.28719561687628
SWARM A                 
1 39452U 13067B   26196.92703792  .00005933  00000+0  99825-4 0  9999
2 39452  87.3295  45.5541 0003332  93.4732 266.6911 15.51467213710703
SWARM C                 
1 39453U 13067C   26196.92694496  .00005951  00000+0  10014-3 0  9992
2 39453  87.3295  44.1350 0003324  93.7087 266.4555 15.51466523710664
BRITE-CA1 (TORONTO)     
1 40020U 14033L   26196.84598905  .00000513  00000+0  84679-4 0  9995
2 40020  97.9773 325.2513 0078483 184.1727 175.8836 14.72723276646433
OCO 2                   
1 40059U 14035A   26196.92780588  .00000164  00000+0  46380-4 0  9997
2 40059  98.2020 137.7844 0001438  81.3244 278.8117 14.57132529640231
BRITE-PL2 (HEWELIUSZ)   
1 40119U 14049B   26196.82557109  .00000476  00000+0  49291-4 0  9999
2 40119  97.9120 309.0513 0014277  20.1864 339.9917 14.94687962645729
MMS 1                   
1 40482U 15011A   26197.00002315 -.00001457  00000+0  00000+0 0  9998
2 40482  72.4906 348.4378 8308544 168.1233 357.5577  0.28234980  1366
MMS 2                   
1 40483U 15011B   26197.00002315 -.00001458  00000+0  00000+0 0  9990
2 40483  72.4946 348.4368 8311387 168.1264 357.5449  0.28233917  1360
MMS 3                   
1 40484U 15011C   26197.00002315 -.00001457  00000+0  00000+0 0  9990
2 40484  72.4943 348.4489 8309797 168.1344 357.5190  0.28232898  1330
MMS 4                   
1 40485U 15011D   26197.00002315 -.00001457  00000+0  00000+0 0  9991
2 40485  72.4899 348.4324 8309757 168.1443 357.5143  0.28232641  1395
ASTROSAT                
1 40930U 15052A   26196.88407344  .00001110  00000+0  53537-4 0  9990
2 40930   5.9976 308.7924 0007380  84.3850 275.7120 14.82552874584099
DAMPE                   
1 41173U 15078A   26196.99499056  .00000952  00000+0  34498-4 0  9999
2 41173  97.4557 202.6050 0011489 342.7236  17.3612 15.30855541588952
PISAT                   
1 41784U 16059B   26196.95644709  .00000435  00000+0  81603-4 0  9996
2 41784  97.8191 196.1749 0030459 112.4897 247.9539 14.69030442523968
HXMT (HUIYAN)           
1 42758U 17034A   26196.94339955  .00002254  00000+0  11690-3 0  9994
2 42758  43.0155  22.8923 0032208 325.4462  34.4293 15.18692514502030
FLYING LAPTOP           
1 42831U 17042G   26196.97986799  .00001986  00000+0  15820-3 0  9992
2 42831  97.4805 351.4297 0019668  30.0064 330.2284 15.01316232490770
ZHANGHENG 1-01 (CSES-1) 
1 43194U 18015C   26196.95665161  .00003693  00000+0  17121-3 0  9994
2 43194  97.6891   3.1903 0016452 162.3098 197.8713 15.20613572469014
SALSAT                  
1 46495U 20068K   26196.92204374  .00003996  00000+0  13964-3 0  9991
2 46495  97.8855 201.7454 0009261 190.1996 169.9057 15.30178067319758
IXPE                    
1 49954U 21121A   26196.91668981  .00006076  00000+0  30386-3 0  9991
2 49954   0.2295  99.7378 0007149 152.4066 209.4656 15.10491600  5520
SMILE                   
1 69123U 26109A   26194.95939329  .00000936  00000+0  00000+0 0  9996
2 69123  70.0512 206.6048 8313707 286.9544   0.1879  0.47500629    65
